CCSDS_OMM_VERS = 2.0
CREATION_DATE  = 
ORIGINATOR     = 

OBJECT_NAME    = COSMOS 1933
OBJECT_ID      = 1988-020A
CENTER_NAME    = EARTH
REF_FRAME      = TEME
TIME_SYSTEM    = UTC
MEAN_ELEMENT_THEORY = SGP/SGP4

EPOCH          = 2026-03-02T14:30:52.952256
MEAN_MOTION    = 15.17907098
ECCENTRICITY   = .0003315
INCLINATION    = 82.5096
RA_OF_ASC_NODE = 257.9238
ARG_OF_PERICENTER = 208.9472
MEAN_ANOMALY   = 151.1579

EPHEMERIS_TYPE = 0
CLASSIFICATION_TYPE = U
NORAD_CAT_ID   = 18958
ELEMENT_SET_NO = 999
REV_AT_EPOCH   = 4915
BSTAR          = .24571E-3
MEAN_MOTION_DOT = .5011E-4
MEAN_MOTION_DDOT = 0

CCSDS_OMM_VERS = 2.0
CREATION_DATE  = 
ORIGINATOR     = 

OBJECT_NAME    = SL-3 R/B
OBJECT_ID      = 1988-032B
CENTER_NAME    = EARTH
REF_FRAME      = TEME
TIME_SYSTEM    = UTC
MEAN_ELEMENT_THEORY = SGP/SGP4

EPOCH          = 2026-03-02T18:05:26.290464
MEAN_MOTION    = 15.19808478
ECCENTRICITY   = .0024088
INCLINATION    = 97.5176
RA_OF_ASC_NODE = 45.0297
ARG_OF_PERICENTER = 257.5714
MEAN_ANOMALY   = 102.2825

EPHEMERIS_TYPE = 0
CLASSIFICATION_TYPE = U
NORAD_CAT_ID   = 19046
ELEMENT_SET_NO = 999
REV_AT_EPOCH   = 5105
BSTAR          = .33134E-3
MEAN_MOTION_DOT = .7082E-4
MEAN_MOTION_DDOT = 0

CCSDS_OMM_VERS = 2.0
CREATION_DATE  = 
ORIGINATOR     = 

OBJECT_NAME    = SL-16 R/B
OBJECT_ID      = 1988-039B
CENTER_NAME    = EARTH
REF_FRAME      = TEME
TIME_SYSTEM    = UTC
MEAN_ELEMENT_THEORY = SGP/SGP4

EPOCH          = 2026-03-02T12:16:13.296000
MEAN_MOTION    = 14.19615352
ECCENTRICITY   = .00223549
INCLINATION    = 71.0128
RA_OF_ASC_NODE = 83.7279
ARG_OF_PERICENTER = 344.9642
MEAN_ANOMALY   = 15.0816

EPHEMERIS_TYPE = 0
CLASSIFICATION_TYPE = U
NORAD_CAT_ID   = 19120
ELEMENT_SET_NO = 999
REV_AT_EPOCH   = 95736
BSTAR          = .9097411E-4
MEAN_MOTION_DOT = .144E-5
MEAN_MOTION_DDOT = 0

CCSDS_OMM_VERS = 2.0
CREATION_DATE  = 
ORIGINATOR     = 

OBJECT_NAME    = COSMOS 1953
OBJECT_ID      = 1988-050A
CENTER_NAME    = EARTH
REF_FRAME      = TEME
TIME_SYSTEM    = UTC
MEAN_ELEMENT_THEORY = SGP/SGP4

EPOCH          = 2026-03-02T18:02:10.391424
MEAN_MOTION    = 15.28371852
ECCENTRICITY   = .0012172
INCLINATION    = 82.5116
RA_OF_ASC_NODE = 165.2225
ARG_OF_PERICENTER = 145.0303
MEAN_ANOMALY   = 215.1738

EPHEMERIS_TYPE = 0
CLASSIFICATION_TYPE = U
NORAD_CAT_ID   = 19210
ELEMENT_SET_NO = 999
REV_AT_EPOCH   = 3672
BSTAR          = .38458E-3
MEAN_MOTION_DOT = .1068E-3
MEAN_MOTION_DDOT = 0

CCSDS_OMM_VERS = 2.0
CREATION_DATE  = 
ORIGINATOR     = 

OBJECT_NAME    = SL-8 R/B
OBJECT_ID      = 1988-053B
CENTER_NAME    = EARTH
REF_FRAME      = TEME
TIME_SYSTEM    = UTC
MEAN_ELEMENT_THEORY = SGP/SGP4

EPOCH          = 2026-03-02T15:41:55.006368
MEAN_MOTION    = 14.38910760
ECCENTRICITY   = .0021257
INCLINATION    = 74.0469
RA_OF_ASC_NODE = 125.4351
ARG_OF_PERICENTER = 305.7809
MEAN_ANOMALY   = 216.9762

EPHEMERIS_TYPE = 0
CLASSIFICATION_TYPE = U
NORAD_CAT_ID   = 19257
ELEMENT_SET_NO = 999
REV_AT_EPOCH   = 97558
BSTAR          = .10705E-3
MEAN_MOTION_DOT = .304E-5
MEAN_MOTION_DDOT = 0

CCSDS_OMM_VERS = 2.0
CREATION_DATE  = 
ORIGINATOR     = 

OBJECT_NAME    = COSMOS 1975
OBJECT_ID      = 1988-093A
CENTER_NAME    = EARTH
REF_FRAME      = TEME
TIME_SYSTEM    = UTC
MEAN_ELEMENT_THEORY = SGP/SGP4

EPOCH          = 2026-03-02T15:39:13.352832
MEAN_MOTION    = 15.27939863
ECCENTRICITY   = .0011484
INCLINATION    = 82.5201
RA_OF_ASC_NODE = 124.7490
ARG_OF_PERICENTER = 187.6591
MEAN_ANOMALY   = 172.4475

EPHEMERIS_TYPE = 0
CLASSIFICATION_TYPE = U
NORAD_CAT_ID   = 19573
ELEMENT_SET_NO = 999
REV_AT_EPOCH   = 1833
BSTAR          = .33661E-3
MEAN_MOTION_DOT = .9226E-4
MEAN_MOTION_DDOT = 0

CCSDS_OMM_VERS = 2.0
CREATION_DATE  = 
ORIGINATOR     = 

OBJECT_NAME    = SL-14 R/B
OBJECT_ID      = 1988-093B
CENTER_NAME    = EARTH
REF_FRAME      = TEME
TIME_SYSTEM    = UTC
MEAN_ELEMENT_THEORY = SGP/SGP4

EPOCH          = 2026-03-02T11:11:58.114176
MEAN_MOTION    = 14.85645946
ECCENTRICITY   = .00221711
INCLINATION    = 82.5290
RA_OF_ASC_NODE = 48.8250
ARG_OF_PERICENTER = 64.0529
MEAN_ANOMALY   = 56.3050

EPHEMERIS_TYPE = 0
CLASSIFICATION_TYPE = U
NORAD_CAT_ID   = 19574
ELEMENT_SET_NO = 999
REV_AT_EPOCH   = 99996
BSTAR          = .7998842E-4
MEAN_MOTION_DOT = .72E-5
MEAN_MOTION_DDOT = 0

CCSDS_OMM_VERS = 2.0
CREATION_DATE  = 
ORIGINATOR     = 

OBJECT_NAME    = SL-16 R/B
OBJECT_ID      = 1988-102B
CENTER_NAME    = EARTH
REF_FRAME      = TEME
TIME_SYSTEM    = UTC
MEAN_ELEMENT_THEORY = SGP/SGP4

EPOCH          = 2026-03-02T16:48:13.514688
MEAN_MOTION    = 14.16149362
ECCENTRICITY   = .0013519
INCLINATION    = 71.0000
RA_OF_ASC_NODE = 166.2026
ARG_OF_PERICENTER = 12.2660
MEAN_ANOMALY   = 347.8790

EPHEMERIS_TYPE = 0
CLASSIFICATION_TYPE = U
NORAD_CAT_ID   = 19650
ELEMENT_SET_NO = 999
REV_AT_EPOCH   = 92590
BSTAR          = -.23193E-4
MEAN_MOTION_DOT = -.94E-6
MEAN_MOTION_DDOT = 0

CCSDS_OMM_VERS = 2.0
CREATION_DATE  = 
ORIGINATOR     = 

OBJECT_NAME    = INTERCOSMOS 24
OBJECT_ID      = 1989-080A
CENTER_NAME    = EARTH
REF_FRAME      = TEME
TIME_SYSTEM    = UTC
MEAN_ELEMENT_THEORY = SGP/SGP4

EPOCH          = 2026-03-02T13:47:19.288320
MEAN_MOTION    = 12.59544974
ECCENTRICITY   = .1186853
INCLINATION    = 82.6033
RA_OF_ASC_NODE = 109.0376
ARG_OF_PERICENTER = 309.3514
MEAN_ANOMALY   = 40.8085

EPHEMERIS_TYPE = 0
CLASSIFICATION_TYPE = U
NORAD_CAT_ID   = 20261
ELEMENT_SET_NO = 999
REV_AT_EPOCH   = 66590
BSTAR          = .23149E-3
MEAN_MOTION_DOT = .78E-5
MEAN_MOTION_DDOT = 0

CCSDS_OMM_VERS = 2.0
CREATION_DATE  = 
ORIGINATOR     = 

OBJECT_NAME    = SL-14 R/B
OBJECT_ID      = 1989-080C
CENTER_NAME    = EARTH
REF_FRAME      = TEME
TIME_SYSTEM    = UTC
MEAN_ELEMENT_THEORY = SGP/SGP4

EPOCH          = 2026-03-02T18:05:56.819040
MEAN_MOTION    = 12.50483090
ECCENTRICITY   = .1230299
INCLINATION    = 82.5971
RA_OF_ASC_NODE = 177.6372
ARG_OF_PERICENTER = 200.5981
MEAN_ANOMALY   = 154.1094

EPHEMERIS_TYPE = 0
CLASSIFICATION_TYPE = U
NORAD_CAT_ID   = 20262
ELEMENT_SET_NO = 999
REV_AT_EPOCH   = 65928
BSTAR          = .22146E-3
MEAN_MOTION_DOT = .744E-5
MEAN_MOTION_DDOT = 0

CCSDS_OMM_VERS = 2.0
CREATION_DATE  = 
ORIGINATOR     = 

OBJECT_NAME    = DELTA 1 R/B
OBJECT_ID      = 1989-089B
CENTER_NAME    = EARTH
REF_FRAME      = TEME
TIME_SYSTEM    = UTC
MEAN_ELEMENT_THEORY = SGP/SGP4

EPOCH          = 2026-03-02T14:02:45.951648
MEAN_MOTION    = 14.50656335
ECCENTRICITY   = .0070022
INCLINATION    = 97.0711
RA_OF_ASC_NODE = 270.1538
ARG_OF_PERICENTER = 144.0950
MEAN_ANOMALY   = 216.4983

EPHEMERIS_TYPE = 0
CLASSIFICATION_TYPE = U
NORAD_CAT_ID   = 20323
ELEMENT_SET_NO = 999
REV_AT_EPOCH   = 89470
BSTAR          = .11989E-3
MEAN_MOTION_DOT = .451E-5
MEAN_MOTION_DDOT = 0

CCSDS_OMM_VERS = 2.0
CREATION_DATE  = 
ORIGINATOR     = 

OBJECT_NAME    = ARIANE 40 R/B
OBJECT_ID      = 1990-005H
CENTER_NAME    = EARTH
REF_FRAME      = TEME
TIME_SYSTEM    = UTC
MEAN_ELEMENT_THEORY = SGP/SGP4

EPOCH          = 2026-03-02T17:24:36.749376
MEAN_MOTION    = 14.39864935
ECCENTRICITY   = .0009427
INCLINATION    = 98.3099
RA_OF_ASC_NODE = 122.5940
ARG_OF_PERICENTER = 220.2494
MEAN_ANOMALY   = 139.7998

EPHEMERIS_TYPE = 0
CLASSIFICATION_TYPE = U
NORAD_CAT_ID   = 20443
ELEMENT_SET_NO = 999
REV_AT_EPOCH   = 89180
BSTAR          = .1157E-3
MEAN_MOTION_DOT = .321E-5
MEAN_MOTION_DDOT = 0

